CCSDS_OMM_VERS = 2.0
CREATION_DATE  = 
ORIGINATOR     = 

OBJECT_NAME    = STARLINK-36924
OBJECT_ID      = 2026-041Q
CENTER_NAME    = EARTH
REF_FRAME      = TEME
TIME_SYSTEM    = UTC
MEAN_ELEMENT_THEORY = SGP/SGP4

EPOCH          = 2026-03-07T14:00:01.000224
MEAN_MOTION    = 15.99675978
ECCENTRICITY   = .0000635
INCLINATION    = 53.1593
RA_OF_ASC_NODE = 73.0057
ARG_OF_PERICENTER = 57.1714
MEAN_ANOMALY   = 201.8072

EPHEMERIS_TYPE = 0
CLASSIFICATION_TYPE = U
NORAD_CAT_ID   = 68054
ELEMENT_SET_NO = 999
REV_AT_EPOCH   = 203
BSTAR          = -.27255397E-2
MEAN_MOTION_DOT = -.1401413E-1
MEAN_MOTION_DDOT = .61126618E-3

CCSDS_OMM_VERS = 2.0
CREATION_DATE  = 
ORIGINATOR     = 

OBJECT_NAME    = STARLINK-35998
OBJECT_ID      = 2026-041R
CENTER_NAME    = EARTH
REF_FRAME      = TEME
TIME_SYSTEM    = UTC
MEAN_ELEMENT_THEORY = SGP/SGP4

EPOCH          = 2026-03-07T14:00:01.000224
MEAN_MOTION    = 15.99551942
ECCENTRICITY   = .00005359
INCLINATION    = 53.1593
RA_OF_ASC_NODE = 73.0082
ARG_OF_PERICENTER = 59.2251
MEAN_ANOMALY   = 198.2902

EPHEMERIS_TYPE = 0
CLASSIFICATION_TYPE = U
NORAD_CAT_ID   = 68055
ELEMENT_SET_NO = 999
REV_AT_EPOCH   = 199
BSTAR          = -.27480369E-2
MEAN_MOTION_DOT = -.1403012E-1
MEAN_MOTION_DDOT = .61172377E-3

CCSDS_OMM_VERS = 2.0
CREATION_DATE  = 
ORIGINATOR     = 

OBJECT_NAME    = STARLINK-36845
OBJECT_ID      = 2026-041S
CENTER_NAME    = EARTH
REF_FRAME      = TEME
TIME_SYSTEM    = UTC
MEAN_ELEMENT_THEORY = SGP/SGP4

EPOCH          = 2026-03-07T14:00:01.000224
MEAN_MOTION    = 15.99798501
ECCENTRICITY   = .00005696
INCLINATION    = 53.1591
RA_OF_ASC_NODE = 73.0027
ARG_OF_PERICENTER = 68.5703
MEAN_ANOMALY   = 191.8297

EPHEMERIS_TYPE = 0
CLASSIFICATION_TYPE = U
NORAD_CAT_ID   = 68056
ELEMENT_SET_NO = 999
REV_AT_EPOCH   = 203
BSTAR          = -.2713746E-2
MEAN_MOTION_DOT = -.1405072E-1
MEAN_MOTION_DDOT = .61500052E-3

CCSDS_OMM_VERS = 2.0
CREATION_DATE  = 
ORIGINATOR     = 

OBJECT_NAME    = STARLINK-36954
OBJECT_ID      = 2026-041T
CENTER_NAME    = EARTH
REF_FRAME      = TEME
TIME_SYSTEM    = UTC
MEAN_ELEMENT_THEORY = SGP/SGP4

EPOCH          = 2026-03-07T14:00:01.000224
MEAN_MOTION    = 15.99921036
ECCENTRICITY   = .00005936
INCLINATION    = 53.1592
RA_OF_ASC_NODE = 72.9995
ARG_OF_PERICENTER = 62.9676
MEAN_ANOMALY   = 198.8900

EPHEMERIS_TYPE = 0
CLASSIFICATION_TYPE = U
NORAD_CAT_ID   = 68057
ELEMENT_SET_NO = 999
REV_AT_EPOCH   = 203
BSTAR          = -.26979942E-2
MEAN_MOTION_DOT = -.1406702E-1
MEAN_MOTION_DDOT = .61712307E-3

CCSDS_OMM_VERS = 2.0
CREATION_DATE  = 
ORIGINATOR     = 

OBJECT_NAME    = STARLINK-36899
OBJECT_ID      = 2026-041U
CENTER_NAME    = EARTH
REF_FRAME      = TEME
TIME_SYSTEM    = UTC
MEAN_ELEMENT_THEORY = SGP/SGP4

EPOCH          = 2026-03-07T14:00:01.000224
MEAN_MOTION    = 16.00027980
ECCENTRICITY   = .00006089
INCLINATION    = 53.1593
RA_OF_ASC_NODE = 72.9972
ARG_OF_PERICENTER = 65.1313
MEAN_ANOMALY   = 197.9576

EPHEMERIS_TYPE = 0
CLASSIFICATION_TYPE = U
NORAD_CAT_ID   = 68058
ELEMENT_SET_NO = 999
REV_AT_EPOCH   = 203
BSTAR          = -.26793333E-2
MEAN_MOTION_DOT = -.1405556E-1
MEAN_MOTION_DDOT = .61691831E-3

CCSDS_OMM_VERS = 2.0
CREATION_DATE  = 
ORIGINATOR     = 

OBJECT_NAME    = STARLINK-36917
OBJECT_ID      = 2026-041V
CENTER_NAME    = EARTH
REF_FRAME      = TEME
TIME_SYSTEM    = UTC
MEAN_ELEMENT_THEORY = SGP/SGP4

EPOCH          = 2026-03-07T14:00:01.000224
MEAN_MOTION    = 16.00164223
ECCENTRICITY   = .00006811
INCLINATION    = 53.1592
RA_OF_ASC_NODE = 72.9939
ARG_OF_PERICENTER = 69.1165
MEAN_ANOMALY   = 195.6356

EPHEMERIS_TYPE = 0
CLASSIFICATION_TYPE = U
NORAD_CAT_ID   = 68059
ELEMENT_SET_NO = 999
REV_AT_EPOCH   = 203
BSTAR          = -.26518579E-2
MEAN_MOTION_DOT = -.1402091E-1
MEAN_MOTION_DDOT = .61504889E-3

CCSDS_OMM_VERS = 2.0
CREATION_DATE  = 
ORIGINATOR     = 

OBJECT_NAME    = STARLINK-36959
OBJECT_ID      = 2026-041W
CENTER_NAME    = EARTH
REF_FRAME      = TEME
TIME_SYSTEM    = UTC
MEAN_ELEMENT_THEORY = SGP/SGP4

EPOCH          = 2026-03-07T14:00:01.000224
MEAN_MOTION    = 16.00266654
ECCENTRICITY   = .00003865
INCLINATION    = 53.1591
RA_OF_ASC_NODE = 72.9908
ARG_OF_PERICENTER = 55.8903
MEAN_ANOMALY   = 210.1397

EPHEMERIS_TYPE = 0
CLASSIFICATION_TYPE = U
NORAD_CAT_ID   = 68060
ELEMENT_SET_NO = 999
REV_AT_EPOCH   = 203
BSTAR          = -.26048114E-2
MEAN_MOTION_DOT = -.1385522E-1
MEAN_MOTION_DDOT = .60249747E-3

CCSDS_OMM_VERS = 2.0
CREATION_DATE  = 
ORIGINATOR     = 

OBJECT_NAME    = STARLINK-36915
OBJECT_ID      = 2026-041X
CENTER_NAME    = EARTH
REF_FRAME      = TEME
TIME_SYSTEM    = UTC
MEAN_ELEMENT_THEORY = SGP/SGP4

EPOCH          = 2026-03-07T14:00:01.000224
MEAN_MOTION    = 16.00394206
ECCENTRICITY   = .0000633
INCLINATION    = 53.1591
RA_OF_ASC_NODE = 72.9878
ARG_OF_PERICENTER = 67.6819
MEAN_ANOMALY   = 199.8025

EPHEMERIS_TYPE = 0
CLASSIFICATION_TYPE = U
NORAD_CAT_ID   = 68061
ELEMENT_SET_NO = 999
REV_AT_EPOCH   = 203
BSTAR          = -.26071707E-2
MEAN_MOTION_DOT = -.1396843E-1
MEAN_MOTION_DDOT = .61237716E-3

CCSDS_OMM_VERS = 2.0
CREATION_DATE  = 
ORIGINATOR     = 

OBJECT_NAME    = STARLINK-36952
OBJECT_ID      = 2026-041Y
CENTER_NAME    = EARTH
REF_FRAME      = TEME
TIME_SYSTEM    = UTC
MEAN_ELEMENT_THEORY = SGP/SGP4

EPOCH          = 2026-03-07T14:00:01.000224
MEAN_MOTION    = 16.00518443
ECCENTRICITY   = .00005378
INCLINATION    = 53.1592
RA_OF_ASC_NODE = 72.9849
ARG_OF_PERICENTER = 63.1818
MEAN_ANOMALY   = 205.8697

EPHEMERIS_TYPE = 0
CLASSIFICATION_TYPE = U
NORAD_CAT_ID   = 68062
ELEMENT_SET_NO = 999
REV_AT_EPOCH   = 203
BSTAR          = -.25593514E-2
MEAN_MOTION_DOT = -.1381253E-1
MEAN_MOTION_DDOT = .60075536E-3

CCSDS_OMM_VERS = 2.0
CREATION_DATE  = 
ORIGINATOR     = 

OBJECT_NAME    = STARLINK-37000
OBJECT_ID      = 2026-041Z
CENTER_NAME    = EARTH
REF_FRAME      = TEME
TIME_SYSTEM    = UTC
MEAN_ELEMENT_THEORY = SGP/SGP4

EPOCH          = 2026-03-07T14:00:01.000224
MEAN_MOTION    = 16.00653434
ECCENTRICITY   = .00005361
INCLINATION    = 53.1591
RA_OF_ASC_NODE = 72.9813
ARG_OF_PERICENTER = 63.3204
MEAN_ANOMALY   = 207.3200

EPHEMERIS_TYPE = 0
CLASSIFICATION_TYPE = U
NORAD_CAT_ID   = 68063
ELEMENT_SET_NO = 999
REV_AT_EPOCH   = 203
BSTAR          = -.25437522E-2
MEAN_MOTION_DOT = -.1383525E-1
MEAN_MOTION_DDOT = .60345117E-3

CCSDS_OMM_VERS = 2.0
CREATION_DATE  = 
ORIGINATOR     = 

OBJECT_NAME    = STARLINK-36996
OBJECT_ID      = 2026-041AA
CENTER_NAME    = EARTH
REF_FRAME      = TEME
TIME_SYSTEM    = UTC
MEAN_ELEMENT_THEORY = SGP/SGP4

EPOCH          = 2026-03-07T14:00:01.000224
MEAN_MOTION    = 16.00790097
ECCENTRICITY   = .00005551
INCLINATION    = 53.1591
RA_OF_ASC_NODE = 72.9781
ARG_OF_PERICENTER = 64.0998
MEAN_ANOMALY   = 208.1653

EPHEMERIS_TYPE = 0
CLASSIFICATION_TYPE = U
NORAD_CAT_ID   = 68064
ELEMENT_SET_NO = 999
REV_AT_EPOCH   = 203
BSTAR          = -.25440938E-2
MEAN_MOTION_DOT = -.1394525E-1
MEAN_MOTION_DDOT = .61316744E-3

CCSDS_OMM_VERS = 2.0
CREATION_DATE  = 
ORIGINATOR     = 

OBJECT_NAME    = STARLINK-36836
OBJECT_ID      = 2026-041AB
CENTER_NAME    = EARTH
REF_FRAME      = TEME
TIME_SYSTEM    = UTC
MEAN_ELEMENT_THEORY = SGP/SGP4

EPOCH          = 2026-03-07T14:00:01.000224
MEAN_MOTION    = 16.01034353
ECCENTRICITY   = .00005779
INCLINATION    = 53.1592
RA_OF_ASC_NODE = 72.9718
ARG_OF_PERICENTER = 65.0203
MEAN_ANOMALY   = 210.1455

EPHEMERIS_TYPE = 0
CLASSIFICATION_TYPE = U
NORAD_CAT_ID   = 68065
ELEMENT_SET_NO = 999
REV_AT_EPOCH   = 203
BSTAR          = -.24988837E-2
MEAN_MOTION_DOT = -.1389312E-1
MEAN_MOTION_DDOT = .61061871E-3

